OBJECT_NAME,OBJECT_ID,EPOCH,MEAN_MOTION,ECCENTRICITY,INCLINATION,RA_OF_ASC_NODE,ARG_OF_PERICENTER,MEAN_ANOMALY,EPHEMERIS_TYPE,CLASSIFICATION_TYPE,NORAD_CAT_ID,ELEMENT_SET_NO,REV_AT_EPOCH,BSTAR,MEAN_MOTION_DOT,MEAN_MOTION_DDOT
TIANMU-1 20,2023-208B,2026-07-14T22:27:48.569184,15.33162276,.00063105,97.4471,313.0522,213.0128,147.0721,0,U,58661,999,14167,.14939043E-3,.4708E-4,0
TIANMU-1 21,2023-208C,2026-07-14T21:09:54.960768,15.35548642,.00066549,97.4532,315.7999,205.2746,154.8173,0,U,58662,999,14181,.16558123E-3,.5641E-4,0
TIANMU-1 22,2023-208D,2026-07-14T21:52:00.880320,15.31424504,.00027243,97.4525,312.2750,219.5691,140.5351,0,U,58663,999,14157,.14046834E-3,.4184E-4,0
TIANMU-1 15,2024-004A,2026-07-14T22:48:56.424384,15.26912478,.00060355,97.4666,22.1412,229.4919,130.5795,0,U,58700,999,14001,.11799738E-3,.3044E-4,0
TIANMU-1 16,2024-004B,2026-07-14T22:33:47.752128,15.27015327,.00044434,97.4614,21.3475,246.8764,113.2007,0,U,58701,999,14001,.11169956E-3,.2887E-4,0
TIANMU-1 17,2024-004C,2026-07-14T23:47:15.124128,15.27013520,.00039107,97.4640,21.8936,252.9315,107.1495,0,U,58702,999,14001,.11467131E-3,.2965E-4,0
TIANMU-1 18,2024-004D,2026-07-14T23:12:48.132000,15.26928770,.00037429,97.4658,22.1323,225.6383,134.4549,0,U,58703,999,14001,.11440543E-3,.295E-4,0
INSAT-3DS,2024-033A,2026-07-14T21:44:11.124384,1.00270908,.0001053,0.0921,264.7805,224.7478,211.3474,0,U,58990,999,4734,0,-.164E-5,0
METEOR-M2 4,2024-039A,2026-07-14T23:14:38.779296,14.22432168,.00082549,98.7025,154.9196,89.3249,270.8874,0,U,59051,999,12321,.16109154E-4,-.8E-7,0
GOES 19,2024-119A,2026-07-14T18:11:25.992672,1.00271581,.00004246,0.0072,128.6667,85.6593,275.9494,0,U,60133,999,724,0,-.257E-5,0
MTG-S1,2025-143A,2026-07-14T18:32:54.583008,1.00273434,.00034643,0.5846,345.0208,261.5494,323.8774,0,U,64723,999,369,0,-.15E-6,0
METOP-SGA1,2025-172A,2026-07-14T18:20:46.629312,14.19819127,.00070989,98.6631,254.9090,333.3306,26.7504,0,U,65159,999,4770,.2916334E-4,.19E-6,0
FENGYUN 3H,2025-219A,2026-07-14T19:18:46.256256,14.19924781,.0001158,98.6771,136.0376,62.6327,297.4968,0,U,65815,999,4130,.23672328E-4,.7E-7,0
