TIANMU-1 20             
1 58661U 23208B   26195.93597881  .00004708  00000+0  14939-3 0  9991
2 58661  97.4471 313.0522 0006310 213.0128 147.0721 15.33162276141670
TIANMU-1 21             
1 58662U 23208C   26195.88188612  .00005641  00000+0  16558-3 0  9990
2 58662  97.4532 315.7999 0006654 205.2746 154.8173 15.35548642141816
TIANMU-1 22             
1 58663U 23208D   26195.91112130  .00004184  00000+0  14047-3 0  9999
2 58663  97.4525 312.2750 0002724 219.5691 140.5351 15.31424504141576
TIANMU-1 15             
1 58700U 24004A   26195.95065306  .00003044  00000+0  11800-3 0  9990
2 58700  97.4666  22.1412 0006035 229.4919 130.5795 15.26912478140013
TIANMU-1 16             
1 58701U 24004B   26195.94013602  .00002887  00000+0  11170-3 0  9996
2 58701  97.4614  21.3475 0004443 246.8764 113.2007 15.27015327140011
TIANMU-1 17             
1 58702U 24004C   26195.99114727  .00002965  00000+0  11467-3 0  9998
2 58702  97.4640  21.8936 0003910 252.9315 107.1495 15.27013520140012
TIANMU-1 18             
1 58703U 24004D   26195.96722375  .00002950  00000+0  11441-3 0  9996
2 58703  97.4658  22.1323 0003742 225.6383 134.4549 15.26928770140015
INSAT-3DS               
1 58990U 24033A   26195.90568431 -.00000164  00000+0  00000+0 0  9992
2 58990   0.0921 264.7805 0001053 224.7478 211.3474  1.00270908 47347
METEOR-M2 4             
1 59051U 24039A   26195.96850439 -.00000008  00000+0  16109-4 0  9994
2 59051  98.7025 154.9196 0008254  89.3249 270.8874 14.22432168123210
GOES 19                 
1 60133U 24119A   26195.75793973 -.00000257  00000+0  00000+0 0  9996
2 60133   0.0072 128.6667 0000424  85.6593 275.9494  1.00271581  7244
MTG-S1                  
1 64723U 25143A   26195.77285397 -.00000015  00000+0  00000+0 0  9993
2 64723   0.5846 345.0208 0003464 261.5494 323.8774  1.00273434  3693
METOP-SGA1              
1 65159U 25172A   26195.76442858  .00000019  00000+0  29163-4 0  9994
2 65159  98.6631 254.9090 0007098 333.3306  26.7504 14.19819127 47700
FENGYUN 3H              
1 65815U 25219A   26195.80470204  .00000007  00000+0  23672-4 0  9992
2 65815  98.6771 136.0376 0001158  62.6327 297.4968 14.19924781 41301
